ORBCOMM FM06            
1 25118U 97084G   26188.35696876  .00001072  00000+0  32734-3 0  9991
2 25118  45.0145 315.6112 0000889 206.2304 182.4550 14.47614828497313
ORBCOMM FM04            
1 25159U 98007C   26188.73900772  .00000581  00000+0  24415-3 0  9998
2 25159 107.9631 211.7191 0041846 289.5802  70.0823 14.35776208479542
ORBCOMM FM19            
1 25415U 98046C   26188.29453267  .00000826  00000+0  30764-3 0  9995
2 25415  44.9923 147.9797 0003652  13.9230 137.6022 14.39530708459670
ORBCOMM FM20            
1 25416U 98046D   26186.00565869  .00000848  00000+0  32377-3 0  9991
2 25416  44.9918 166.9799 0002210 311.3972  48.6686 14.38089487459359
ORBCOMM FM27            
1 25481U 98053G   26188.11037684  .00000557  00000+0  22387-3 0  9991
2 25481  45.0041 240.7234 0002374 263.4664  96.5915 14.39176126453103
ORBCOMM FM32            
1 25982U 99065C   26188.10223729  .00000618  00000+0  25315-3 0  9999
2 25982  45.0153  78.9720 0004925 151.2429 208.8692 14.37160139389957
ORBCOMM FM109           
1 40086U 14040A   26188.43895652  .00000319  00000+0  10364-3 0  9993
2 40086  47.0043 355.7372 0001770 299.6158  60.4551 14.58867123637300
ORBCOMM FM110           
1 41182U 15081D   26188.44400825  .00000460  00000+0  13341-3 0  9997
2 41182  47.0017 265.6622 0003199 188.6798 171.4033 14.58911772560583
ORBCOMM FM118           
1 41183U 15081E   26188.61533432  .00000259  00000+0  91045-4 0  9992
2 41183  47.0035 265.1877 0002514 148.2378 211.8660 14.58899791560713
ORBCOMM FM112           
1 41184U 15081F   26188.34556943  .00000541  00000+0  15050-3 0  9990
2 41184  46.9972 174.9206 0004051 296.4874  63.5596 14.58929361561897
ORBCOMM FM113           
1 41185U 15081G   26187.98044067  .00000296  00000+0  98764-4 0  9990
2 41185  46.9988 177.0336 0002554 291.9011  68.1603 14.58876031561820
ORBCOMM FM108           
1 41187U 15081J   26188.14804315  .00000558  00000+0  15416-3 0  9994
2 41187  47.0048  87.8205 0003008 293.3239  66.7330 14.58901422562990
ORBCOMM FM117           
1 41188U 15081K   26188.11370753  .00000545  00000+0  15142-3 0  9998
2 41188  47.0013  86.6119 0003478 298.7282  61.3254 14.58888925563036
ORBCOMM FM116           
1 41189U 15081L   26188.36784335  .00000166  00000+0  71164-4 0  9997
2 41189  47.0006 175.1992 0001265 207.4627 152.6192 14.58900876561880
